{
  "type": "FeatureCollection",
  "features": [
    {
      "type": "Feature",
      "properties": {
        "norad_id": 29887,
        "name": "FENGYUN 1C DEB",
        "group": "fengyun-1c-debris",
        "lat": 3.5696279123307013,
        "lon": -119.97315245529484,
        "alt_km": 961.1086432043276,
        "timestamp": "2025-12-03T22:42:32.907631+00:00",
        "meta_object_name": "FENGYUN 1C DEB",
        "meta_object_id": "1999-025GH",
        "meta_epoch": "2025-12-03T05:15:53.594784",
        "meta_mean_motion": 14.33639267,
        "meta_eccentricity": 0.0287734,
        "meta_inclination": 98.7196,
        "meta_ra_of_asc_node": 58.7449,
        "meta_arg_of_pericenter": 27.229,
        "meta_mean_anomaly": 358.2473,
        "meta_ephemeris_type": 0,
        "meta_classification_type": "U",
        "meta_norad_cat_id": 29887,
        "meta_element_set_no": 999,
        "meta_rev_at_epoch": 97838,
        "meta_bstar": 0.00067107,
        "meta_mean_motion_dot": 2.906e-05,
        "meta_mean_motion_ddot": 0,
        "tle_line1": "1 29887U 99025GH  25337.21937031  .00002906  00000+0  67107-3 0  9995",
        "tle_line2": "2 29887  98.7196  58.7449 0287734  27.2290 358.2473 14.33639267978387"
      },
      "geometry": {
        "type": "Point",
        "coordinates": [
          -119.97315245529484,
          3.5696279123307013
        ]
      }
    },
    {
      "type": "Feature",
      "properties": {
        "norad_id": 29888,
        "name": "FENGYUN 1C DEB",
        "group": "fengyun-1c-debris",
        "lat": -32.13933514396393,
        "lon": 176.1441397573913,
        "alt_km": 801.7856992679381,
        "timestamp": "2025-12-03T22:42:32.907641+00:00",
        "meta_object_name": "FENGYUN 1C DEB",
        "meta_object_id": "1999-025GJ",
        "meta_epoch": "2025-12-03T12:42:41.194080",
        "meta_mean_motion": 14.19825535,
        "meta_eccentricity": 0.0275298,
        "meta_inclination": 99.1921,
        "meta_ra_of_asc_node": 169.8723,
        "meta_arg_of_pericenter": 51.4925,
        "meta_mean_anomaly": 311.0593,
        "meta_ephemeris_type": 0,
        "meta_classification_type": "U",
        "meta_norad_cat_id": 29888,
        "meta_element_set_no": 999,
        "meta_rev_at_epoch": 97373,
        "meta_bstar": 0.000469,
        "meta_mean_motion_dot": 1.401e-05,
        "meta_mean_motion_ddot": 0,
        "tle_line1": "1 29888U 99025GJ  25337.52964345  .00001401  00000+0  46900-3 0  9995",
        "tle_line2": "2 29888  99.1921 169.8723 0275298  51.4925 311.0593 14.19825535973737"
      },
      "geometry": {
        "type": "Point",
        "coordinates": [
          176.1441397573913,
          -32.13933514396393
        ]
      }
    },
    {
      "type": "Feature",
      "properties": {
        "norad_id": 29889,
        "name": "FENGYUN 1C DEB",
        "group": "fengyun-1c-debris",
        "lat": -70.7134922647938,
        "lon": -113.69359839127213,
        "alt_km": 964.8869099952944,
        "timestamp": "2025-12-03T22:42:32.907650+00:00",
        "meta_object_name": "FENGYUN 1C DEB",
        "meta_object_id": "1999-025GK",
        "meta_epoch": "2025-12-03T06:21:58.063104",
        "meta_mean_motion": 14.13493492,
        "meta_eccentricity": 0.0154747,
        "meta_inclination": 99.4767,
        "meta_ra_of_asc_node": 94.096,
        "meta_arg_of_pericenter": 65.3692,
        "meta_mean_anomaly": 324.8045,
        "meta_ephemeris_type": 0,
        "meta_classification_type": "U",
        "meta_norad_cat_id": 29889,
        "meta_element_set_no": 999,
        "meta_rev_at_epoch": 97185,
        "meta_bstar": 0.00041497,
        "meta_mean_motion_dot": 8.27e-06,
        "meta_mean_motion_ddot": 0,
        "tle_line1": "1 29889U 99025GK  25337.26525536  .00000827  00000+0  41497-3 0  9999",
        "tle_line2": "2 29889  99.4767  94.0960 0154747  65.3692 324.8045 14.13493492971853"
      },
      "geometry": {
        "type": "Point",
        "coordinates": [
          -113.69359839127213,
          -70.7134922647938
        ]
      }
    },
    {
      "type": "Feature",
      "properties": {
        "norad_id": 29890,
        "name": "FENGYUN 1C DEB",
        "group": "fengyun-1c-debris",
        "lat": 3.450067024870541,
        "lon": -80.6115093525504,
        "alt_km": 815.6804322916905,
        "timestamp": "2025-12-03T22:42:32.907659+00:00",
        "meta_object_name": "FENGYUN 1C DEB",
        "meta_object_id": "1999-025GL",
        "meta_epoch": "2025-12-03T01:38:02.493024",
        "meta_mean_motion": 14.22975988,
        "meta_eccentricity": 0.00149149,
        "meta_inclination": 99.4677,
        "meta_ra_of_asc_node": 97.8688,
        "meta_arg_of_pericenter": 99.7546,
        "meta_mean_anomaly": 260.5314,
        "meta_ephemeris_type": 0,
        "meta_classification_type": "U",
        "meta_norad_cat_id": 29890,
        "meta_element_set_no": 999,
        "meta_rev_at_epoch": 97313,
        "meta_bstar": 0.001130762,
        "meta_mean_motion_dot": 2.499e-05,
        "meta_mean_motion_ddot": 0,
        "tle_line1": "1 29890U 99025GL  25337.06808441  .00002499  00000+0  11308-2 0  9992",
        "tle_line2": "2 29890  99.4677  97.8688 0014914  99.7546 260.5314 14.22975988973136"
      },
      "geometry": {
        "type": "Point",
        "coordinates": [
          -80.6115093525504,
          3.450067024870541
        ]
      }
    },
    {
      "type": "Feature",
      "properties": {
        "norad_id": 29891,
        "name": "FENGYUN 1C DEB",
        "group": "fengyun-1c-debris",
        "lat": 68.55684132940355,
        "lon": -176.50407959054974,
        "alt_km": 931.8280802536165,
        "timestamp": "2025-12-03T22:42:32.907669+00:00",
        "meta_object_name": "FENGYUN 1C DEB",
        "meta_object_id": "1999-025GM",
        "meta_epoch": "2025-12-03T10:57:24.850368",
        "meta_mean_motion": 13.999808,
        "meta_eccentricity": 0.0061616,
        "meta_inclination": 98.726,
        "meta_ra_of_asc_node": 340.0104,
        "meta_arg_of_pericenter": 286.3258,
        "meta_mean_anomaly": 236.7857,
        "meta_ephemeris_type": 0,
        "meta_classification_type": "U",
        "meta_norad_cat_id": 29891,
        "meta_element_set_no": 999,
        "meta_rev_at_epoch": 96358,
        "meta_bstar": 0.00047171,
        "meta_mean_motion_dot": 6.63e-06,
        "meta_mean_motion_ddot": 0,
        "tle_line1": "1 29891U 99025GM  25337.45653762  .00000663  00000+0  47171-3 0  9999",
        "tle_line2": "2 29891  98.7260 340.0104 0061616 286.3258 236.7857 13.99980800963585"
      },
      "geometry": {
        "type": "Point",
        "coordinates": [
          -176.50407959054974,
          68.55684132940355
        ]
      }
    },
    {
      "type": "Feature",
      "properties": {
        "norad_id": 29892,
        "name": "FENGYUN 1C DEB",
        "group": "fengyun-1c-debris",
        "lat": -43.146817590273756,
        "lon": -63.746236645086604,
        "alt_km": 811.0111905613403,
        "timestamp": "2025-12-03T22:42:32.907678+00:00",
        "meta_object_name": "FENGYUN 1C DEB",
        "meta_object_id": "1999-025GN",
        "meta_epoch": "2025-12-03T08:29:50.562816",
        "meta_mean_motion": 14.31887599,
        "meta_eccentricity": 0.0190864,
        "meta_inclination": 99.1811,
        "meta_ra_of_asc_node": 124.3465,
        "meta_arg_of_pericenter": 324.5548,
        "meta_mean_anomaly": 90.6206,
        "meta_ephemeris_type": 0,
        "meta_classification_type": "U",
        "meta_norad_cat_id": 29892,
        "meta_element_set_no": 999,
        "meta_rev_at_epoch": 96515,
        "meta_bstar": 0.003688,
        "meta_mean_motion_dot": 0.00012036,
        "meta_mean_motion_ddot": 0,
        "tle_line1": "1 29892U 99025GN  25337.35405744  .00012036  00000+0  36880-2 0  9995",
        "tle_line2": "2 29892  99.1811 124.3465 0190864 324.5548  90.6206 14.31887599965159"
      },
      "geometry": {
        "type": "Point",
        "coordinates": [
          -63.746236645086604,
          -43.146817590273756
        ]
      }
    },
    {
      "type": "Feature",
      "properties": {
        "norad_id": 29893,
        "name": "FENGYUN 1C DEB",
        "group": "fengyun-1c-debris",
        "lat": -33.33705039358658,
        "lon": -110.8285879607816,
        "alt_km": 868.8044838830674,
        "timestamp": "2025-12-03T22:42:32.907688+00:00",
        "meta_object_name": "FENGYUN 1C DEB",
        "meta_object_id": "1999-025GP",
        "meta_epoch": "2025-12-03T06:08:45.882240",
        "meta_mean_motion": 13.79453063,
        "meta_eccentricity": 0.0173334,
        "meta_inclination": 98.5539,
        "meta_ra_of_asc_node": 74.2293,
        "meta_arg_of_pericenter": 179.0088,
        "meta_mean_anomaly": 208.1536,
        "meta_ephemeris_type": 0,
        "meta_classification_type": "U",
        "meta_norad_cat_id": 29893,
        "meta_element_set_no": 999,
        "meta_rev_at_epoch": 95009,
        "meta_bstar": 0.00033803,
        "meta_mean_motion_dot": 3.51e-06,
        "meta_mean_motion_ddot": 0,
        "tle_line1": "1 29893U 99025GP  25337.25608660  .00000351  00000+0  33803-3 0  9997",
        "tle_line2": "2 29893  98.5539  74.2293 0173334 179.0088 208.1536 13.79453063950092"
      },
      "geometry": {
        "type": "Point",
        "coordinates": [
          -110.8285879607816,
          -33.33705039358658
        ]
      }
    }
  ]
}